IRIDIUM 126             
1 42809U 17039G   23283.76141316  .00000657  00000+0  22757-3 0  9993
2 42809  86.3994  43.3582 0002210  86.3493 273.7955 14.34219912329421
IRIDIUM 124             
1 42810U 17039H   23283.71431782  .00000840  00000+0  24372-3 0  9998
2 42810  86.4524 340.1674 0002177  98.9226 261.2221 14.43281878333690
IRIDIUM 128             
1 42811U 17039J   23284.44984026  .00000767  00000+0  26690-3 0  9997
2 42811  86.3932  74.6059 0002020  86.7395 273.4031 14.34222987329558
IRIDIUM 121             
1 42812U 17039K   23284.40836314  .00000757  00000+0  26312-3 0  9990
2 42812  86.3996  43.1095 0002184  91.0060 269.1386 14.34221994329517
IRIDIUM 133             
1 42955U 17061A   23283.92340848  .00000653  00000+0  22624-3 0  9998
2 42955  86.3932  74.9200 0002180  83.8973 276.2471 14.34220940314274
IRIDIUM 100             
1 42956U 17061B   23283.84729381  .00000359  00000+0  12095-3 0  9997
2 42956  86.3929  74.8935 0002106  87.8495 272.2942 14.34220557314268
IRIDIUM 122             
1 42957U 17061C   23284.44349922  .00000655  00000+0  22666-3 0  9998
2 42957  86.3932  74.6417 0001977  85.3527 274.7895 14.34222822314351
IRIDIUM 129             
1 42958U 17061D   23283.70140640  .00000411  00000+0  13960-3 0  9990
2 42958  86.3931  75.0090 0001979  87.3095 272.8328 14.34218353314261
